NORAD_CAT_ID,OBJECT_NAME,OBJECT_TYPE,EPOCH,MEAN_MOTION,ECCENTRICITY,INCLINATION,RA_OF_ASC_NODE,ARG_OF_PERICENTER,MEAN_ANOMALY,BSTAR,MEAN_MOTION_DOT,MEAN_MOTION_DDOT,TLE_LINE0,TLE_LINE1,TLE_LINE2,SEMIMAJOR_AXIS,PERIOD,APOGEE,PERIGEE,DECAYED
51879.0,STARLINK-3572,PAYLOAD,2023-09-13 21:28:04,15.08854344,0.0001345,53.2162,114.3701,88.891,271.2236,0.00021703,3.169e-05,0.0,0 STARLINK-3572,1 51879U 22022AD  23256.89449523  .00003169  00000-0  21703-3 0  9995,2 51879  53.2162 114.3701 0001345  88.8910 271.2236 15.08854344 86206,6917.837,95.437,540.632,538.771,0.0
51879.0,STARLINK-3572,PAYLOAD,2023-09-14 00:38:50,15.0885844,0.0001257,53.2161,113.7756,86.8714,273.2422,0.00024131,3.557e-05,0.0,0 STARLINK-3572,1 51879U 22022AD  23257.02697277  .00003557  00000-0  24131-3 0  9991,2 51879  53.2161 113.7756 0001257  86.8714 273.2422 15.08858440 86222,6917.824,95.436,540.559,538.819,0.0
51879.0,STARLINK-3572,PAYLOAD,2023-09-14 18:08:06,15.08821901,0.0001245,53.2161,110.5045,72.2465,287.8663,-0.00024046,-4.111e-05,0.0,0 STARLINK-3572,1 51879U 22022AD  23257.75563383 -.00004111  00000-0 -24046-3 0  9995,2 51879  53.2161 110.5045 0001245  72.2465 287.8663 15.08821901 86339,6917.936,95.439,540.662,538.939,0.0
51879.0,STARLINK-3572,PAYLOAD,2023-09-14 21:18:53,15.08817494,0.0001306,53.2166,109.9081,92.8081,267.3061,-0.00031084,-5.228e-05,0.0,0 STARLINK-3572,1 51879U 22022AD  23257.88811618 -.00005228  00000-0 -31084-3 0  9996,2 51879  53.2166 109.9081 0001306  92.8081 267.3061 15.08817494 86355,6917.949,95.439,540.718,538.911,0.0
51879.0,STARLINK-3572,PAYLOAD,2023-09-14 22:54:16,15.0881652,0.0001351,53.2166,109.6111,94.2708,265.8439,-0.00031364,-5.273e-05,0.0,0 STARLINK-3572,1 51879U 22022AD  23257.95435748 -.00005273  00000-0 -31364-3 0  9991,2 51879  53.2166 109.6111 0001351  94.2708 265.8439 15.08816520 86360,6917.952,95.439,540.752,538.883,0.0
51879.0,STARLINK-3572,PAYLOAD,2023-09-15 17:58:54,15.08827761,0.0001313,53.2164,106.042,85.1359,274.9783,-6.6569e-05,-1.347e-05,0.0,0 STARLINK-3572,1 51879U 22022AD  23258.74924388 -.00001347  00000-0 -66569-4 0  9996,2 51879  53.2164 106.0420 0001313  85.1359 274.9783 15.08827761 86486,6917.918,95.438,540.691,538.874,0.0
51879.0,STARLINK-3572,PAYLOAD,2023-09-16 00:20:27,15.08834626,0.0001335,53.2162,104.8536,90.3488,269.7657,0.00028798,4.298e-05,0.0,0 STARLINK-3572,1 51879U 22022AD  23259.01420499  .00004298  00000-0  28798-3 0  9998,2 51879  53.2162 104.8536 0001335  90.3488 269.7657 15.08834626 86528,6917.897,95.438,540.685,538.838,0.0
51879.0,STARLINK-3572,PAYLOAD,2023-09-16 21:00:27,15.08862873,0.0001341,53.2154,100.9881,94.9055,265.209,0.000868,0.00013562,0.0,0 STARLINK-3572,1 51879U 22022AD  23259.87532158  .00013562  00000-0  86800-3 0  9990,2 51879  53.2154 100.9881 0001341  94.9055 265.2090 15.08862873 86657,6917.81,95.436,540.603,538.748,0.0
51879.0,STARLINK-3572,PAYLOAD,2023-09-17 19:15:50,15.08870675,0.000133,53.2151,96.8245,95.5928,264.5216,0.00061039,9.448e-05,0.0,0 STARLINK-3572,1 51879U 22022AD  23260.80266916  .00009448  00000-0  61039-3 0  9996,2 51879  53.2151  96.8245 0001330  95.5928 264.5216 15.08870675 86791,6917.787,95.436,540.572,538.732,0.0
51879.0,STARLINK-3572,PAYLOAD,2023-09-17 22:26:36,15.08869643,0.0001343,53.2154,96.23,95.5027,264.6119,0.00054484,8.401e-05,0.0,0 STARLINK-3572,1 51879U 22022AD  23260.93514758  .00008401  00000-0  54484-3 0  9994,2 51879  53.2154  96.2300 0001343  95.5027 264.6119 15.08869643 86813,6917.79,95.436,540.584,538.726,0.0
51879.0,STARLINK-3572,PAYLOAD,2023-09-18 17:31:14,15.08848453,0.0001887,53.2167,92.6576,97.4348,262.6859,3.0895e-05,2.04e-06,0.0,0 STARLINK-3572,1 51879U 22022AD  23261.73002859  .00000204  00000-0  30895-4 0  9991,2 51879  53.2167  92.6576 0001887  97.4348 262.6859 15.08848453 86930,6917.855,95.437,541.025,538.414,0.0
51879.0,STARLINK-3572,PAYLOAD,2023-09-18 19:06:37,15.08850529,0.0001517,53.2168,92.3641,86.6782,273.4383,7.6284e-05,9.27e-06,0.0,0 STARLINK-3572,1 51879U 22022AD  23261.79626909  .00000927  00000-0  76284-4 0  9999,2 51879  53.2168  92.3641 0001517  86.6782 273.4383 15.08850529 86943,6917.848,95.437,540.763,538.664,0.0
51879.0,STARLINK-3572,PAYLOAD,2023-09-19 18:57:24,15.08852859,0.0001486,53.2169,87.9016,97.1651,262.951,0.00028202,4.205e-05,0.0,0 STARLINK-3572,1 51879U 22022AD  23262.78986410  .00004205  00000-0  28202-3 0  9994,2 51879  53.2169  87.9016 0001486  97.1651 262.9510 15.08852859 87097,6917.841,95.437,540.734,538.678,0.0
51879.0,STARLINK-3572,PAYLOAD,2023-09-20 12:26:39,15.08835855,0.0001379,53.2172,84.6315,97.3091,262.8058,-1.4764e-05,-5.23e-06,0.0,0 STARLINK-3572,1 51879U 22022AD  23263.51851081 -.00000523  00000-0 -14764-4 0  9991,2 51879  53.2172  84.6315 0001379  97.3091 262.8058 15.08835855 87204,6917.893,95.438,540.712,538.804,0.0
51879.0,STARLINK-3572,PAYLOAD,2023-09-20 20:23:35,15.08832806,0.0001378,53.2169,83.1452,97.9984,262.1164,-4.3367e-05,-9.78e-06,0.0,0 STARLINK-3572,1 51879U 22022AD  23263.84971399 -.00000978  00000-0 -43367-4 0  9997,2 51879  53.2169  83.1452 0001378  97.9984 262.1164 15.08832806 87251,6917.902,95.438,540.721,538.814,0.0
51879.0,STARLINK-3572,PAYLOAD,2023-09-21 12:17:26,15.08839712,0.0001326,53.2167,80.1712,101.5853,258.5288,0.00013034,1.787e-05,0.0,0 STARLINK-3572,1 51879U 22022AD  23264.51211347  .00001787  00000-0  13034-3 0  9996,2 51879  53.2167  80.1712 0001326 101.5853 258.5288 15.08839712 87355,6917.881,95.438,540.664,538.829,0.0
51879.0,STARLINK-3572,PAYLOAD,2023-09-21 18:38:58,15.08856653,0.0001359,53.217,78.9832,91.419,268.6957,0.00045231,6.921e-05,0.0,0 STARLINK-3572,1 51879U 22022AD  23264.77706764  .00006921  00000-0  45231-3 0  9995,2 51879  53.2170  78.9832 0001359  91.4190 268.6957 15.08856653 87396,6917.829,95.437,540.635,538.754,0.0
51879.0,STARLINK-3572,PAYLOAD,2023-09-21 20:14:21,15.08859937,0.0001345,53.217,78.6859,91.9216,268.193,0.00068061,0.00010566,0.0,0 STARLINK-3572,1 51879U 22022AD  23264.84330806  .00010566  00000-0  68061-3 0  9999,2 51879  53.2170  78.6859 0001345  91.9216 268.1930 15.08859937 87407,6917.819,95.436,540.615,538.754,0.0
51879.0,STARLINK-3572,PAYLOAD,2023-09-22 04:11:17,15.08850087,0.0001454,53.2168,77.1988,91.2823,268.8335,0.00052031,8.005e-05,0.0,0 STARLINK-3572,1 51879U 22022AD  23265.17451036  .00008005  00000-0  52031-3 0  9990,2 51879  53.2168  77.1988 0001454  91.2823 268.8335 15.08850087 87457,6917.85,95.437,540.72,538.709,0.0
51879.0,STARLINK-3572,PAYLOAD,2023-09-22 12:08:13,15.08854924,0.0002186,53.2175,75.7119,78.2769,281.8469,0.00046955,7.196e-05,0.0,0 STARLINK-3572,1 51879U 22022AD  23265.50571013  .00007196  00000-0  46955-3 0  9993,2 51879  53.2175  75.7119 0002186  78.2769 281.8469 15.08854924 87505,6917.835,95.437,541.212,538.188,0.0
51879.0,STARLINK-3572,PAYLOAD,2023-09-22 18:29:45,15.08843752,0.0001456,53.2179,74.5253,91.1405,268.9754,0.00010883,1.445e-05,0.0,0 STARLINK-3572,1 51879U 22022AD  23265.77067081  .00001445  00000-0  10883-3 0  9999,2 51879  53.2179  74.5253 0001456  91.1405 268.9754 15.08843752 87549,6917.869,95.437,540.741,538.727,0.0
51879.0,STARLINK-3572,PAYLOAD,2023-09-22 20:05:09,15.08849235,0.0001379,53.2174,74.2256,82.5845,277.5304,0.00029869,4.47e-05,0.0,0 STARLINK-3572,1 51879U 22022AD  23265.83690974  .00004470  00000-0  29869-3 0  9994,2 51879  53.2174  74.2256 0001379  82.5845 277.5304 15.08849235 87550,6917.852,95.437,540.671,538.763,0.0
51879.0,STARLINK-3572,PAYLOAD,2023-09-23 10:23:37,15.08837424,0.0001375,53.2171,71.5499,86.0875,274.0274,-4.9652e-05,-1.078e-05,0.0,0 STARLINK-3572,1 51879U 22022AD  23266.43307153 -.00001078  00000-0 -49652-4 0  9991,2 51879  53.2171  71.5499 0001375  86.0875 274.0274 15.08837424 87649,6917.888,95.438,540.704,538.802,0.0
51879.0,STARLINK-3572,PAYLOAD,2023-09-23 18:20:33,15.08842699,0.0001421,53.2174,70.0644,91.9139,268.2016,4.1624e-06,-2.22e-06,0.0,0 STARLINK-3572,1 51879U 22022AD  23266.76427107 -.00000222  00000-0  41624-5 0  9990,2 51879  53.2174  70.0644 0001421  91.9139 268.2016 15.08842699 87692,6917.872,95.437,540.72,538.754,0.0
51879.0,STARLINK-3572,PAYLOAD,2023-09-24 11:49:47,15.08837887,0.000137,53.2171,66.7924,87.1152,272.9996,0.00010973,1.459e-05,0.0,0 STARLINK-3572,1 51879U 22022AD  23267.49291428  .00001459  00000-0  10973-3 0  9999,2 51879  53.2171  66.7924 0001370  87.1152 272.9996 15.08837887 87802,6917.887,95.438,540.7,538.804,0.0
51879.0,STARLINK-3572,PAYLOAD,2023-09-24 18:11:20,15.08846004,0.0001323,53.2172,65.603,85.5132,274.6011,0.00023895,3.518e-05,0.0,0 STARLINK-3572,1 51879U 22022AD  23267.75787144  .00003518  00000-0  23895-3 0  9998,2 51879  53.2172  65.6030 0001323  85.5132 274.6011 15.08846004 87849,6917.862,95.437,540.642,538.812,0.0
51879.0,STARLINK-3572,PAYLOAD,2023-09-25 03:43:39,15.08843533,0.000132,53.2167,63.8176,77.7204,282.3936,0.0001933,2.79e-05,0.0,0 STARLINK-3572,1 51879U 22022AD  23268.15531369  .00002790  00000-0  19330-3 0  9999,2 51879  53.2167  63.8176 0001320  77.7204 282.3936 15.08843533 87907,6917.87,95.437,540.648,538.821,0.0
51879.0,STARLINK-3572,PAYLOAD,2023-09-25 18:02:07,15.08846119,0.000134,53.2169,61.1412,78.6447,281.4696,0.00022301,3.264e-05,0.0,0 STARLINK-3572,1 51879U 22022AD  23268.75147312  .00003264  00000-0  22301-3 0  9995,2 51879  53.2169  61.1412 0001340  78.6447 281.4696 15.08846119 87999,6917.862,95.437,540.654,538.8,0.0
51879.0,STARLINK-3572,PAYLOAD,2023-09-26 14:42:08,15.08826998,0.0001193,53.2171,57.2756,75.4974,284.6151,-0.00013168,-2.382e-05,0.0,0 STARLINK-3572,1 51879U 22022AD  23269.61260189 -.00002382  00000-0 -13168-3 0  9992,2 51879  53.2171  57.2756 0001193  75.4974 284.6151 15.08826998 88125,6917.92,95.438,540.61,538.96,0.0
51879.0,STARLINK-3572,PAYLOAD,2023-09-26 16:17:32,15.08831733,0.0001649,53.2172,56.9779,73.7243,286.393,-1.593e-05,-5.41e-06,0.0,0 STARLINK-3572,1 51879U 22022AD  23269.67884311 -.00000541  00000-0 -15930-4 0  9992,2 51879  53.2172  56.9779 0001649  73.7243 286.3930 15.08831733 88131,6917.906,95.438,540.911,538.63,0.0
